BEIDOU-2 IGSO-1 (C06)   
1 36828U 10036A   25202.89613848 -.00000111  00000+0  00000+0 0  9997
2 36828  54.2805 165.9497 0049283 218.0335 345.9698  1.00266654 54915
BEIDOU-2 G4 (C04)       
1 37210U 10057A   25202.52815921 -.00000119  00000+0  00000+0 0  9990
2 37210   2.8230  70.4099 0005809 169.3101  49.8684  1.00269793 53961
BEIDOU-2 IGSO-2 (C07)   
1 37256U 10068A   25202.77257170 -.00000190  00000+0  00000+0 0  9994
2 37256  48.1419 275.9248 0048282 214.0942 195.7600  1.00278182 53471
BEIDOU-2 IGSO-3 (C08)   
1 37384U 11013A   25202.88422402 -.00000168  00000+0  00000+0 0  9996
2 37384  61.9352  43.2760 0031635 175.5584 145.4678  1.00257424 52342
BEIDOU-2 IGSO-4 (C09)   
1 37763U 11038A   25202.91508000 -.00000047  00000+0  00000+0 0  9993
2 37763  54.5825 168.6328 0144767 231.2443 324.5668  1.00270481 51327
BEIDOU-2 IGSO-5 (C10)   
1 37948U 11073A   25202.55728900 -.00000156  00000+0  00000+0 0  9991
2 37948  48.2794 275.6325 0109700 220.3675 100.1957  1.00279833 49817
BEIDOU-2 G5 (C05)       
1 38091U 12008A   25202.58790591  .00000052  00000+0  00000+0 0  9992
2 38091   2.7466  71.2065 0006178 255.9976 242.6975  1.00269642 49057
BEIDOU-2 M3 (C11)       
1 38250U 12018A   25202.42340252 -.00000094  00000+0  00000+0 0  9995
2 38250  56.0385 316.0059 0022003 265.9860  93.7733  1.86233519 89786
BEIDOU-2 M4 (C12)       
1 38251U 12018B   25202.35580974 -.00000093  00000+0  00000+0 0  9994
2 38251  55.9413 315.2490 0012916 265.4292  94.4349  1.86231912 89789
BEIDOU-2 M6 (C14)       
1 38775U 12050B   25199.38158784 -.00000049  00000+0  00000+0 0  9990
2 38775  56.2463  73.9562 0012935 353.9163   6.1303  1.86230949 87099
BEIDOU-2 G6 (C02)       
1 38953U 12059A   25202.85311249 -.00000183  00000+0  00000+0 0  9990
2 38953   3.5791  76.9971 0008152 320.0767 293.8918  1.00273426 46730
BEIDOU-3S IGSO-1S (C31) 
1 40549U 15019A   25202.89415042 -.00000189  00000+0  00000+0 0  9999
2 40549  49.8201 299.4397 0040999 193.5677 223.6728  1.00269854 37757
BEIDOU-3S M2S (C58)     
1 40748U 15037A   25200.94860963 -.00000089  00000+0  00000+0 0  9999
2 40748  55.1629 313.4662 0010119 250.0634 109.8424  1.86229195 67936
BEIDOU-3S M1S (C57)     
1 40749U 15037B   25202.80875556 -.00000091  00000+0  00000+0 0  9994
2 40749  55.1580 313.3939 0002545  18.5433 341.4806  1.86253795 67950
BEIDOU-3S IGSO-2S (C56) 
1 40938U 15053A   25202.85166403 -.00000094  00000+0  00000+0 0  9994
2 40938  49.7317 262.7078 0060713 190.0400 248.1417  1.00259041 36031
BEIDOU-2 IGSO-6 (C13)   
1 41434U 16021A   25198.36009061 -.00000154  00000+0  00000+0 0  9995
2 41434  59.7538  41.3770 0054067 227.8786 251.4148  1.00281383 34120
BEIDOU-2 G7 (C03)       
1 41586U 16037A   25202.57751049 -.00000359  00000+0  00000+0 0  9996
2 41586   1.8462  69.2722 0009032   9.6082 179.1037  1.00274810  3570
BEIDOU-3 M1 (C19)       
1 43001U 17069A   25201.29502228 -.00000054  00000+0  00000+0 0  9999
2 43001  56.3968  74.0405 0009072 321.7976  38.2006  1.86231127 52423
BEIDOU-3 M2 (C20)       
1 43002U 17069B   25202.30701246 -.00000052  00000+0  00000+0 0  9992
2 43002  56.3969  74.0430 0007881 351.2940   8.7577  1.86230785 52433
BEIDOU-3 M7 (C27)       
1 43107U 18003A   25202.05195117 -.00000092  00000+0  00000+0 0  9997
2 43107  54.6202 313.8436 0003978  93.5090 266.5502  1.86232459 51188
BEIDOU-3 M8 (C28)       
1 43108U 18003B   25201.45871475 -.00000091  00000+0  00000+0 0  9998
2 43108  54.6136 313.8478 0003488 250.7781 109.1981  1.86230874 51183
BEIDOU-3 M4 (C22)       
1 43207U 18018A   25202.43714551 -.00000051  00000+0  00000+0 0  9990
2 43207  56.3567  74.0779 0006979  23.2621 336.8353  1.86231052 50588
BEIDOU-3 M3 (C21)       
1 43208U 18018B   25201.96675268 -.00000053  00000+0  00000+0 0  9991
2 43208  56.3558  74.0976 0007406 339.8922  20.1428  1.86230940 50574
BEIDOU-3 M9 (C29)       
1 43245U 18029A   25202.18392702 -.00000089  00000+0  00000+0 0  9997
2 43245  54.4918 311.5068 0001315 200.2560 159.7557  1.86232487 49733
BEIDOU-3 M10 (C30)      
1 43246U 18029B   25202.11726175 -.00000089  00000+0  00000+0 0  9996
2 43246  54.4897 311.5366 0002913  24.6592 335.3715  1.86229083 49713
BEIDOU-2 IGSO-7 (C16)   
1 43539U 18057A   25202.89613862 -.00000110  00000+0  00000+0 0  9990
2 43539  55.1702 165.9162 0089792 236.5057 329.0183  1.00246208 25814
BEIDOU-3 M5 (C23)       
1 43581U 18062A   25202.34221389  .00000083  00000+0  00000+0 0  9990
2 43581  54.1005 193.5517 0005637 284.8216  75.1177  1.86228548 47475
BEIDOU-3 M6 (C24)       
1 43582U 18062B   25202.20611260  .00000086  00000+0  00000+0 0  9990
2 43582  54.1003 193.5454 0004815   2.7085 357.2966  1.86229495 47474
BEIDOU-3 M12 (C26)      
1 43602U 18067A   25202.14229388  .00000085  00000+0  00000+0 0  9996
2 43602  54.1935 192.2655 0007366  24.0683 335.9666  1.86227654 46952
BEIDOU-3 M11 (C25)      
1 43603U 18067B   25201.20251901  .00000100  00000+0  00000+0 0  9997
2 43603  54.1909 192.2617 0004241   6.8552 353.1552  1.86227145 46966
BEIDOU-3 M13 (C32)      
1 43622U 18072A   25202.23472500 -.00000052  00000+0  00000+0 0  9995
2 43622  56.3291  73.6046 0005769 326.0808  33.9476  1.86231301 46495
BEIDOU-3 M14 (C33)      
1 43623U 18072B   25201.02628836 -.00000054  00000+0  00000+0 0  9999
2 43623  56.3300  73.6384 0005030   4.2601 355.8063  1.86231302 46465
BEIDOU-3 M16 (C35)      
1 43647U 18078A   25202.25964963 -.00000089  00000+0  00000+0 0  9999
2 43647  54.3886 311.5697 0006298  30.7833 329.2704  1.86232137 45998
BEIDOU-3 M15 (C34)      
1 43648U 18078B   25201.85191482 -.00000089  00000+0  00000+0 0  9993
2 43648  54.3845 311.5854 0003224  48.6630 311.3814  1.86232261 46003
BEIDOU-3 G1 (C59)       
1 43683U 18085A   25202.61477088 -.00000284  00000+0  00000+0 0  9991
2 43683   2.7501 107.2314 0004000 358.0201 195.7502  1.00271145 24749
BEIDOU-3 M17 (C36)      
1 43706U 18093A   25200.39702115  .00000110  00000+0  00000+0 0  9998
2 43706  54.1839 193.5856 0010287 286.8787  73.0170  1.86228123 45340
BEIDOU-3 M18 (C37)      
1 43707U 18093B   25201.87001406  .00000091  00000+0  00000+0 0  9996
2 43707  54.1847 193.5274 0008217 313.3936  46.5422  1.86229745 45364
BEIDOU-3 IGSO-1 (C38)   
1 44204U 19023A   25202.55688949 -.00000210  00000+0  00000+0 0  9996
2 44204  58.2272  41.0617 0023612 215.9154   1.4381  1.00286773 23042
BEIDOU-2 G8 (C01)       
1 44231U 19027A   25202.86989075 -.00000253  00000+0  00000+0 0  9995
2 44231   1.7763  75.2118 0003734 245.5778  76.7766  1.00270594 22763
BEIDOU-3 IGSO-2 (C39)   
1 44337U 19035A   25202.29273200 -.00000121  00000+0  00000+0 0  9998
2 44337  55.2157 161.7700 0035546 210.6729 151.2121  1.00260021 22357
BEIDOU-3 M24 (C46)      
1 44542U 19061A   25200.86725421  .00000106  00000+0  00000+0 0  9995
2 44542  54.4117 193.9348 0008267 350.8856   9.1079  1.86229183 39602
BEIDOU-3 M23 (C45)      
1 44543U 19061B   25202.88300345  .00000074  00000+0  00000+0 0  9998
2 44543  54.4101 193.8353 0005753 330.7757 213.4352  1.86229282 39632
BEIDOU-3 IGSO-3 (C40)   
1 44709U 19073A   25202.62948776 -.00000193  00000+0  00000+0 0  9996
2 44709  55.3654 284.4705 0045248 189.7149 170.2792  1.00288332 21127
BEIDOU-3 M22 (C44)      
1 44793U 19078A   25202.31999060 -.00000089  00000+0  00000+0 0  9996
2 44793  54.2351 311.4507 0005190  40.7942 319.2617  1.86232112 38489
BEIDOU-3 M21 (C43)      
1 44794U 19078B   25201.91733778 -.00000089  00000+0  00000+0 0  9994
2 44794  54.2090 311.4326 0003205  37.9104 322.1291  1.86227701 38481
BEIDOU-3 M19 (C41)      
1 44864U 19090A   25202.44836534 -.00000052  00000+0  00000+0 0  9999
2 44864  56.2636  73.7465 0016480 291.8470 258.5772  1.86231439 38079
BEIDOU-3 M20 (C42)      
1 44865U 19090B   25202.28836756 -.00000052  00000+0  00000+0 0  9998
2 44865  56.2651  73.7859 0014360 306.9541 225.8352  1.86231325 38059
BEIDOU-3 G2 (C60)       
1 45344U 20017A   25202.89969219 -.00000147  00000+0  00000+0 0  9995
2 45344   2.9318  41.1550 0001468  87.6503 215.0076  1.00271399 19967
BEIDOU-3 G3 (C61)       
1 45807U 20040A   25202.57751058 -.00000358  00000+0  00000+0 0  9994
2 45807   1.6406  64.7837 0003952 348.0473 205.0733  1.00265098 18758
BEIDOU-3 G4 (C62)       
1 56564U 23066A   25202.85253013 -.00000115  00000+0  00000+0 0  9997
2 56564   1.1430 293.6795 0006555 196.2105 276.8101  1.00269692  8090
BEIDOU-3 M28 (C50)      
1 58654U 23207A   25200.92287102 -.00000056  00000+0  00000+0 0  9992
2 58654  55.4514  73.5375 0002059 353.0951   6.9633  1.86229841 10656
BEIDOU-3 M26 (C48)      
1 58655U 23207B   25201.79568099 -.00000055  00000+0  00000+0 0  9995
2 58655  55.4543  73.4939 0001685 305.3242  54.7230  1.86231542 10656
BEIDOU-3 M25 (C47)      
1 61186U 24168B   25202.61997713 -.00000092  00000+0  00000+0 0  9997
2 61186  54.7651 313.7118 0003724 281.4371  28.7786  1.86229852  5622
BEIDOU-3 M27 (C49)      
1 61187U 24168C   25201.40200087 -.00000091  00000+0  00000+0 0  9994
2 61187  54.7617 313.7381 0000673  22.9606 325.5623  1.86229866  3076
